[{"OBJECT_NAME":"STARLINK-30758","OBJECT_ID":"2023-162R","EPOCH":"2026-03-09T13:08:07.564128","MEAN_MOTION":15.26920058,"ECCENTRICITY":0.0002801,"INCLINATION":43.0036,"RA_OF_ASC_NODE":130.0263,"ARG_OF_PERICENTER":273.5061,"MEAN_ANOMALY":86.547,"EPHEMERIS_TYPE":0,"CLASSIFICATION_TYPE":"U","NORAD_CAT_ID":58133,"ELEMENT_SET_NO":999,"REV_AT_EPOCH":13232,"BSTAR":0.0014419,"MEAN_MOTION_DOT":0.00038835,"MEAN_MOTION_DDOT":0},{"OBJECT_NAME":"ELECTRON KICK STAGE R\/B","OBJECT_ID":"2022-147B","EPOCH":"2026-03-09T22:28:20.187264","MEAN_MOTION":15.28920172,"ECCENTRICITY":0.00095089,"INCLINATION":97.642,"RA_OF_ASC_NODE":85.1135,"ARG_OF_PERICENTER":110.4683,"MEAN_ANOMALY":249.7578,"EPHEMERIS_TYPE":0,"CLASSIFICATION_TYPE":"U","NORAD_CAT_ID":54228,"ELEMENT_SET_NO":999,"REV_AT_EPOCH":18390,"BSTAR":0.00083201931,"MEAN_MOTION_DOT":0.00023374,"MEAN_MOTION_DDOT":0}]
